{
  "type": "FeatureCollection",
  "features": [
    {
      "type": "Feature",
      "properties": {
        "norad_id": 40069,
        "name": "METEOR-M 2",
        "group": "weather",
        "lat": 68.46824339066517,
        "lon": 177.63683122626034,
        "alt_km": 812.2056039853087,
        "timestamp": "2025-12-24T05:51:19.248733+00:00",
        "meta_object_name": "METEOR-M 2",
        "meta_object_id": "2014-037A",
        "meta_epoch": "2025-12-23T22:34:56.944704",
        "meta_mean_motion": 14.21389867,
        "meta_eccentricity": 0.00055913,
        "meta_inclination": 98.4913,
        "meta_ra_of_asc_node": 335.0962,
        "meta_arg_of_pericenter": 174.6174,
        "meta_mean_anomaly": 185.5065,
        "meta_ephemeris_type": 0,
        "meta_classification_type": "U",
        "meta_norad_cat_id": 40069,
        "meta_element_set_no": 999,
        "meta_rev_at_epoch": 59442,
        "meta_bstar": 1.2530666e-05,
        "meta_mean_motion_dot": -1.5e-07,
        "meta_mean_motion_ddot": 0,
        "tle_line1": "1 40069U 14037A   25357.94093686 -.00000015  00000+0  12531-4 0  9993",
        "tle_line2": "2 40069  98.4913 335.0962 0005591 174.6174 185.5065 14.21389867594426"
      },
      "geometry": {
        "type": "Point",
        "coordinates": [
          177.63683122626034,
          68.46824339066517
        ]
      }
    },
    {
      "type": "Feature",
      "properties": {
        "norad_id": 40267,
        "name": "HIMAWARI-8",
        "group": "weather",
        "lat": 0.011252498334463727,
        "lon": -38.48319253933117,
        "alt_km": 35782.619261552,
        "timestamp": "2025-12-24T05:51:19.248745+00:00",
        "meta_object_name": "HIMAWARI-8",
        "meta_object_id": "2014-060A",
        "meta_epoch": "2025-12-23T20:38:53.749248",
        "meta_mean_motion": 1.00271877,
        "meta_eccentricity": 8.625e-05,
        "meta_inclination": 0.0448,
        "meta_ra_of_asc_node": 209.3766,
        "meta_arg_of_pericenter": 95.0712,
        "meta_mean_anomaly": 238.5881,
        "meta_ephemeris_type": 0,
        "meta_classification_type": "U",
        "meta_norad_cat_id": 40267,
        "meta_element_set_no": 999,
        "meta_rev_at_epoch": 4100,
        "meta_bstar": 0,
        "meta_mean_motion_dot": -2.54e-06,
        "meta_mean_motion_ddot": 0,
        "tle_line1": "1 40267U 14060A   25357.86034432 -.00000254  00000+0  00000+0 0  9992",
        "tle_line2": "2 40267   0.0448 209.3766 0000862  95.0712 238.5881  1.00271877 41003"
      },
      "geometry": {
        "type": "Point",
        "coordinates": [
          -38.48319253933117,
          0.011252498334463727
        ]
      }
    },
    {
      "type": "Feature",
      "properties": {
        "norad_id": 40367,
        "name": "FENGYUN 2G",
        "group": "weather",
        "lat": -2.2226165827667184,
        "lon": -80.02897356255879,
        "alt_km": 35776.93615419358,
        "timestamp": "2025-12-24T05:51:19.248758+00:00",
        "meta_object_name": "FENGYUN 2G",
        "meta_object_id": "2014-090A",
        "meta_epoch": "2025-12-23T18:44:19.570848",
        "meta_mean_motion": 1.00283037,
        "meta_eccentricity": 0.00017935,
        "meta_inclination": 5.1935,
        "meta_ra_of_asc_node": 74.9603,
        "meta_arg_of_pericenter": 171.7462,
        "meta_mean_anomaly": 226.1214,
        "meta_ephemeris_type": 0,
        "meta_classification_type": "U",
        "meta_norad_cat_id": 40367,
        "meta_element_set_no": 999,
        "meta_rev_at_epoch": 4024,
        "meta_bstar": 0,
        "meta_mean_motion_dot": -2.82e-06,
        "meta_mean_motion_ddot": 0,
        "tle_line1": "1 40367U 14090A   25357.78078207 -.00000282  00000+0  00000+0 0  9996",
        "tle_line2": "2 40367   5.1935  74.9603 0001793 171.7462 226.1214  1.00283037 40244"
      },
      "geometry": {
        "type": "Point",
        "coordinates": [
          -80.02897356255879,
          -2.2226165827667184
        ]
      }
    },
    {
      "type": "Feature",
      "properties": {
        "norad_id": 40732,
        "name": "METEOSAT-11 (MSG-4)",
        "group": "weather",
        "lat": 2.4426002623923604,
        "lon": -169.94159705212397,
        "alt_km": 35783.02783373054,
        "timestamp": "2025-12-24T05:51:19.248770+00:00",
        "meta_object_name": "METEOSAT-11 (MSG-4)",
        "meta_object_id": "2015-034A",
        "meta_epoch": "2025-12-23T21:44:09.996864",
        "meta_mean_motion": 1.00270988,
        "meta_eccentricity": 7.404e-05,
        "meta_inclination": 2.7643,
        "meta_ra_of_asc_node": 71.9712,
        "meta_arg_of_pericenter": 137.19,
        "meta_mean_anomaly": 218.7543,
        "meta_ephemeris_type": 0,
        "meta_classification_type": "U",
        "meta_norad_cat_id": 40732,
        "meta_element_set_no": 999,
        "meta_rev_at_epoch": 545,
        "meta_bstar": 0,
        "meta_mean_motion_dot": 8.1e-07,
        "meta_mean_motion_ddot": 0,
        "tle_line1": "1 40732U 15034A   25357.90567126  .00000081  00000+0  00000+0 0  9994",
        "tle_line2": "2 40732   2.7643  71.9712 0000740 137.1900 218.7543  1.00270988  5458"
      },
      "geometry": {
        "type": "Point",
        "coordinates": [
          -169.94159705212397,
          2.4426002623923604
        ]
      }
    },
    {
      "type": "Feature",
      "properties": {
        "norad_id": 41105,
        "name": "ELEKTRO-L 2",
        "group": "weather",
        "lat": 6.253662777022326,
        "lon": 166.36840706621146,
        "alt_km": 35791.388724079734,
        "timestamp": "2025-12-24T05:51:19.248782+00:00",
        "meta_object_name": "ELEKTRO-L 2",
        "meta_object_id": "2015-074A",
        "meta_epoch": "2025-12-23T21:37:25.643136",
        "meta_mean_motion": 1.00272258,
        "meta_eccentricity": 0.00035137,
        "meta_inclination": 6.2519,
        "meta_ra_of_asc_node": 72.6954,
        "meta_arg_of_pericenter": 208.5036,
        "meta_mean_anomaly": 121.373,
        "meta_ephemeris_type": 0,
        "meta_classification_type": "U",
        "meta_norad_cat_id": 41105,
        "meta_element_set_no": 999,
        "meta_rev_at_epoch": 3674,
        "meta_bstar": 0,
        "meta_mean_motion_dot": -9.8e-07,
        "meta_mean_motion_ddot": 0,
        "tle_line1": "1 41105U 15074A   25357.90099124 -.00000098  00000+0  00000+0 0  9990",
        "tle_line2": "2 41105   6.2519  72.6954 0003513 208.5036 121.3730  1.00272258 36749"
      },
      "geometry": {
        "type": "Point",
        "coordinates": [
          166.36840706621146,
          6.253662777022326
        ]
      }
    },
    {
      "type": "Feature",
      "properties": {
        "norad_id": 41752,
        "name": "INSAT-3DR",
        "group": "weather",
        "lat": 0.004081902238127569,
        "lon": -105.21298500322163,
        "alt_km": 35728.513798114574,
        "timestamp": "2025-12-24T05:51:19.248794+00:00",
        "meta_object_name": "INSAT-3DR",
        "meta_object_id": "2016-054A",
        "meta_epoch": "2025-12-23T22:02:38.228928",
        "meta_mean_motion": 1.00271452,
        "meta_eccentricity": 0.00142402,
        "meta_inclination": 0.1182,
        "meta_ra_of_asc_node": 86.24,
        "meta_arg_of_pericenter": 185.6045,
        "meta_mean_anomaly": 225.5056,
        "meta_ephemeris_type": 0,
        "meta_classification_type": "U",
        "meta_norad_cat_id": 41752,
        "meta_element_set_no": 999,
        "meta_rev_at_epoch": 3406,
        "meta_bstar": 0,
        "meta_mean_motion_dot": -5.6e-07,
        "meta_mean_motion_ddot": 0,
        "tle_line1": "1 41752U 16054A   25357.91849802 -.00000056  00000+0  00000+0 0  9998",
        "tle_line2": "2 41752   0.1182  86.2400 0014240 185.6045 225.5056  1.00271452 34063"
      },
      "geometry": {
        "type": "Point",
        "coordinates": [
          -105.21298500322163,
          0.004081902238127569
        ]
      }
    },
    {
      "type": "Feature",
      "properties": {
        "norad_id": 41836,
        "name": "HIMAWARI-9",
        "group": "weather",
        "lat": -0.03551976636883739,
        "lon": -38.39725710078267,
        "alt_km": 35780.9028335766,
        "timestamp": "2025-12-24T05:51:19.248806+00:00",
        "meta_object_name": "HIMAWARI-9",
        "meta_object_id": "2016-064A",
        "meta_epoch": "2025-12-23T10:22:39.677952",
        "meta_mean_motion": 1.00267853,
        "meta_eccentricity": 0.00015362,
        "meta_inclination": 0.0172,
        "meta_ra_of_asc_node": 36.5385,
        "meta_arg_of_pericenter": 294.9233,
        "meta_mean_anomaly": 57.1973,
        "meta_ephemeris_type": 0,
        "meta_classification_type": "U",
        "meta_norad_cat_id": 41836,
        "meta_element_set_no": 999,
        "meta_rev_at_epoch": 3344,
        "meta_bstar": 0,
        "meta_mean_motion_dot": 0,
        "meta_mean_motion_ddot": 0,
        "tle_line1": "1 41836U 16064A   25357.43240368  .00000000  00000+0  00000+0 0  9999",
        "tle_line2": "2 41836   0.0172  36.5385 0001536 294.9233  57.1973  1.00267853 33449"
      },
      "geometry": {
        "type": "Point",
        "coordinates": [
          -38.39725710078267,
          -0.03551976636883739
        ]
      }
    }
  ]
}